OBJECT_NAME,OBJECT_ID,EPOCH,MEAN_MOTION,ECCENTRICITY,INCLINATION,RA_OF_ASC_NODE,ARG_OF_PERICENTER,MEAN_ANOMALY,EPHEMERIS_TYPE,CLASSIFICATION_TYPE,NORAD_CAT_ID,ELEMENT_SET_NO,REV_AT_EPOCH,BSTAR,MEAN_MOTION_DOT,MEAN_MOTION_DDOT
CUBEBUG-2 (LO-74),2013-066AA,2026-06-16T20:41:36.487968,14.93759610,.0058408,97.8908,116.8389,30.1194,330.3363,0,U,39440,999,67694,.36654E-3,.3954E-4,0
FUNCUBE-1 (AO-73),2013-066AE,2026-06-16T20:35:03.372288,15.09487689,.0035603,97.8277,139.2966,202.0284,157.9416,0,U,39444,999,67961,.34605E-3,.5558E-4,0
UWE-3,2013-066AG,2026-06-16T09:55:32.231136,14.97020137,.00477002,97.8696,123.4820,323.7124,36.0865,0,U,39446,999,67746,.3260796E-3,.3778E-4,0
UNISAT-6,2014-033C,2026-06-16T20:44:40.297056,14.88245276,.0046265,97.7879,320.5816,70.3400,290.2801,0,U,40012,999,64611,.22842E-3,.2094E-4,0
DUCHIFAT-1,2014-033M,2026-06-16T16:50:40.438752,15.64505076,.0003011,98.0457,226.7943,117.2713,242.8852,0,U,40021,999,65567,.93727E-3,.90859E-3,0
QB50P1,2014-033R,2026-06-16T18:06:40.569408,15.18255584,.0007757,98.0959,178.8704,216.7389,143.3312,0,U,40025,999,65296,.32109E-3,.6505E-4,0
LILACSAT-2,2015-049K,2026-06-16T21:14:47.387616,15.51436882,.0005498,97.4641,204.7154,246.4502,113.6173,0,U,40908,999,59570,.2541E-3,.14899E-3,0
FOX-1A (AO-85),2015-058D,2026-06-16T16:21:48.722688,14.90967641,.0130434,64.7762,280.5545,56.7813,304.5723,0,U,40967,999,11349,.17791E-3,.1893E-4,0
CAS-2T & KS-1Q,2016-066G,2026-06-16T18:08:20.906592,14.44693320,.0342784,98.3822,243.4970,130.7831,232.3645,0,U,41847,999,50473,.21759E-3,.1503E-4,0
RADFXSAT (FOX-1B),2017-073E,2026-06-16T21:03:14.520960,15.12714806,.0149597,97.4700,35.0982,330.3447,28.9362,0,U,43017,999,46534,.28237E-3,.6435E-4,0
DIWATA-2B,2018-084H,2026-06-16T20:04:28.083360,15.00451602,.0012455,98.1175,4.0296,171.1877,188.9567,0,U,43678,999,41616,.18773E-3,.23E-4,0
ES'HAIL 2,2018-090A,2026-06-16T18:16:15.449952,1.00270422,.0001609,0.0175,13.0563,111.1044,80.7103,0,U,43700,999,2767,0,.141E-5,0
FOX-1CLIFF (AO-95),2018-099N,2026-06-16T16:25:34.838400,15.26702664,.0008029,97.4378,227.9322,359.9269,0.1967,0,U,43770,999,41314,.32646E-3,.8509E-4,0
ITASAT,2018-099AE,2026-06-16T16:36:55.692864,15.19052097,.0012152,97.4024,219.2135,1.9743,358.1538,0,U,43786,999,41283,.28121E-3,.5837E-4,0
JY1SAT (JO-97),2018-099AX,2026-06-16T16:54:09.187200,15.33640706,.000432,97.4127,230.5368,264.4420,95.6330,0,U,43803,999,41355,.42078E-3,.13619E-3,0
UWE-4,2018-111E,2026-06-16T18:17:23.877024,15.46104351,.0005598,97.5856,96.1335,344.6304,15.4774,0,U,43880,999,41071,.58526E-3,.28639E-3,0
TIANYAN 01,2019-093C,2026-06-16T20:13:39.087264,14.86521095,.0015145,97.7538,240.0832,87.8796,272.4154,0,U,44881,999,35136,.12133E-3,.1022E-4,0
RS-44 & BREEZE-KM R/B,2019-096E,2026-06-16T20:22:19.007040,12.79748867,.0218156,82.5219,339.9298,144.9538,216.6144,0,U,44909,999,30230,.15372E-4,.16E-6,0
SALSAT,2020-068K,2026-06-16T18:04:24.320064,15.29794360,.0008036,97.8846,170.7912,309.8779,50.1753,0,U,46495,999,31529,.22536E-3,.6424E-4,0
XW-3 (CAS-9),2021-131B,2026-06-16T20:18:44.951040,14.41357864,.0005389,98.4987,260.2376,97.5245,262.6556,0,U,50466,999,23506,.18754E-3,.563E-5,0
GREENCUBE (IO-117),2022-080E,2026-06-13T07:02:28.697280,6.42583230,.00089108,70.1444,299.5995,290.4576,69.5127,0,U,53109,999,9181,0,-.3E-7,0
UMKA 1 (RS40S),2023-091G,2026-06-16T19:56:15.461664,15.20815751,.0014236,97.5049,226.5292,118.7578,241.5089,0,U,57172,999,16395,.24523E-3,.5352E-4,0
CUBESX-HSE 3 (RS42S),2023-091N,2026-06-16T20:19:48.927648,15.31208920,.0012048,97.5092,233.4299,95.9037,264.3577,0,U,57178,999,16437,.37918E-3,.11381E-3,0
MONITOR-3 (RS58S),2023-091Q,2026-06-16T19:19:41.265408,15.27835844,.00131,97.5083,231.2485,101.9331,258.3377,0,U,57180,999,16423,.32728E-3,.8843E-4,0
MONITOR-4 (RS57S),2023-091S,2026-06-16T20:23:52.040832,15.27922273,.0013116,97.5076,231.2648,102.2860,257.9849,0,U,57182,999,16424,.34582E-3,.9374E-4,0
MONITOR-2 (RS39S),2023-091U,2026-06-16T20:26:13.111296,15.18908087,.0012735,97.5072,226.1366,112.0645,248.1943,0,U,57184,999,16390,.21008E-3,.4324E-4,0
SVYATOBOR 1 (RS60S),2023-091X,2026-06-16T20:42:18.174240,15.26611365,.0010883,97.5089,231.6779,95.3583,264.8898,0,U,57187,999,16426,.30584E-3,.7949E-4,0
VIZARD-METEO (RS38S),2023-091Z,2026-06-16T19:43:31.378080,15.36016864,.0008277,97.5093,237.2996,78.7954,281.4219,0,U,57189,999,16463,.40697E-3,.14215E-3,0
POLYTECH-UNIVERSE 3 (RS46S),2023-091AB,2026-06-16T19:30:35.978688,15.19110440,.0016842,97.5046,225.6027,127.9197,232.3563,0,U,57191,999,16389,.1958E-3,.4055E-4,0
UTMN 2 (RS27S),2023-091AP,2026-06-16T20:45:24.475104,15.32046004,.0009283,97.5088,235.0813,84.8341,275.3960,0,U,57203,999,16449,.36638E-3,.11275E-3,0
