CUBEBUG-2 (LO-74)       
1 39440U 13066AA  26167.86222787  .00003954  00000+0  36654-3 0  9997
2 39440  97.8908 116.8389 0058408  30.1194 330.3363 14.93759610676940
FUNCUBE-1 (AO-73)       
1 39444U 13066AE  26167.85767792  .00005558  00000+0  34605-3 0  9996
2 39444  97.8277 139.2966 0035603 202.0284 157.9416 15.09487689679616
UWE-3                   
1 39446U 13066AG  26167.41356749  .00003778  00000+0  32608-3 0  9999
2 39446  97.8696 123.4820 0047700 323.7124  36.0865 14.97020137677465
UNISAT-6                
1 40012U 14033C   26167.86435529  .00002094  00000+0  22842-3 0  9997
2 40012  97.7879 320.5816 0046265  70.3400 290.2801 14.88245276646115
DUCHIFAT-1              
1 40021U 14033M   26167.70185693  .00090859  00000+0  93727-3 0  9990
2 40021  98.0457 226.7943 0003011 117.2713 242.8852 15.64505076655671
QB50P1                  
1 40025U 14033R   26167.75463622  .00006505  00000+0  32109-3 0  9992
2 40025  98.0959 178.8704 0007757 216.7389 143.3312 15.18255584652969
LILACSAT-2              
1 40908U 15049K   26167.88527069  .00014899  00000+0  25410-3 0  9992
2 40908  97.4641 204.7154 0005498 246.4502 113.6173 15.51436882595707
FOX-1A (AO-85)          
1 40967U 15058D   26167.68181392  .00001893  00000+0  17791-3 0  9993
2 40967  64.7762 280.5545 0130434  56.7813 304.5723 14.90967641113493
CAS-2T & KS-1Q          
1 41847U 16066G   26167.75579753  .00001503  00000+0  21759-3 0  9998
2 41847  98.3822 243.4970 0342784 130.7831 232.3645 14.44693320504738
RADFXSAT (FOX-1B)       
1 43017U 17073E   26167.87725140  .00006435  00000+0  28237-3 0  9991
2 43017  97.4700  35.0982 0149597 330.3447  28.9362 15.12714806465347
DIWATA-2B               
1 43678U 18084H   26167.83643615  .00002300  00000+0  18773-3 0  9990
2 43678  98.1175   4.0296 0012455 171.1877 188.9567 15.00451602416167
ES'HAIL 2               
1 43700U 18090A   26167.76128993  .00000141  00000+0  00000+0 0  9993
2 43700   0.0175  13.0563 0001609 111.1044  80.7103  1.00270422 27674
FOX-1CLIFF (AO-95)      
1 43770U 18099N   26167.68443100  .00008509  00000+0  32646-3 0  9991
2 43770  97.4378 227.9322 0008029 359.9269   0.1967 15.26702664413145
ITASAT                  
1 43786U 18099AE  26167.69231126  .00005837  00000+0  28121-3 0  9996
2 43786  97.4024 219.2135 0012152   1.9743 358.1538 15.19052097412834
JY1SAT (JO-97)          
1 43803U 18099AX  26167.70427300  .00013619  00000+0  42078-3 0  9993
2 43803  97.4127 230.5368 0004320 264.4420  95.6330 15.33640706413557
UWE-4                   
1 43880U 18111E   26167.76208191  .00028639  00000+0  58526-3 0  9997
2 43880  97.5856  96.1335 0005598 344.6304  15.4774 15.46104351410714
TIANYAN 01              
1 44881U 19093C   26167.84281351  .00001022  00000+0  12133-3 0  9998
2 44881  97.7538 240.0832 0015145  87.8796 272.4154 14.86521095351360
RS-44 & BREEZE-KM R/B   
1 44909U 19096E   26167.84883110  .00000016  00000+0  15372-4 0  9994
2 44909  82.5219 339.9298 0218156 144.9538 216.6144 12.79748867302306
SALSAT                  
1 46495U 20068K   26167.75305926  .00006424  00000+0  22536-3 0  9999
2 46495  97.8846 170.7912 0008036 309.8779  50.1753 15.29794360315296
XW-3 (CAS-9)            
1 50466U 21131B   26167.84635360  .00000563  00000+0  18754-3 0  9997
2 50466  98.4987 260.2376 0005389  97.5245 262.6556 14.41357864235062
GREENCUBE (IO-117)      
1 53109U 22080E   26164.29338770 -.00000003  00000+0  00000+0 0  9990
2 53109  70.1444 299.5995 0008910 290.4576  69.5127  6.42583230 91811
UMKA 1 (RS40S)          
1 57172U 23091G   26167.83073451  .00005352  00000+0  24523-3 0  9993
2 57172  97.5049 226.5292 0014236 118.7578 241.5089 15.20815751163957
CUBESX-HSE 3 (RS42S)    
1 57178U 23091N   26167.84709407  .00011381  00000+0  37918-3 0  9998
2 57178  97.5092 233.4299 0012048  95.9037 264.3577 15.31208920164378
MONITOR-3 (RS58S)       
1 57180U 23091Q   26167.80533872  .00008843  00000+0  32728-3 0  9991
2 57180  97.5083 231.2485 0013100 101.9331 258.3377 15.27835844164231
MONITOR-4 (RS57S)       
1 57182U 23091S   26167.84990788  .00009374  00000+0  34582-3 0  9990
2 57182  97.5076 231.2648 0013116 102.2860 257.9849 15.27922273164247
MONITOR-2 (RS39S)       
1 57184U 23091U   26167.85154064  .00004324  00000+0  21008-3 0  9991
2 57184  97.5072 226.1366 0012735 112.0645 248.1943 15.18908087163907
SVYATOBOR 1 (RS60S)     
1 57187U 23091X   26167.86271035  .00007949  00000+0  30584-3 0  9998
2 57187  97.5089 231.6779 0010883  95.3583 264.8898 15.26611365164266
VIZARD-METEO (RS38S)    
1 57189U 23091Z   26167.82189095  .00014215  00000+0  40697-3 0  9990
2 57189  97.5093 237.2996 0008277  78.7954 281.4219 15.36016864164634
POLYTECH-UNIVERSE 3 (R*)
1 57191U 23091AB  26167.81291642  .00004055  00000+0  19580-3 0  9992
2 57191  97.5046 225.6027 0016842 127.9197 232.3563 15.19110440163894
UTMN 2 (RS27S)          
1 57203U 23091AP  26167.86486661  .00011275  00000+0  36638-3 0  9993
2 57203  97.5088 235.0813 0009283  84.8341 275.3960 15.32046004164499
